STARLINK-31107          
1 58684U 23211T   26068.05927359 -.00000272  00000+0 -37366-6 0  9995
2 58684  42.9994  89.2231 0001392 277.9362  82.1331 15.27585804122363
BANDWAGON-2 OBJECT D    
1 62380U 24247D   26068.52261193  .00011259  00000+0  40119-3 0  9994
2 62380  44.9954 115.6710 0003488 351.1453   8.9368 15.29076102 67732
